CCSDS_OMM_VERS = 2.0
CREATION_DATE  = 
ORIGINATOR     = 

OBJECT_NAME    = TITAN 4B R/B
OBJECT_ID      = 2000-047B
CENTER_NAME    = EARTH
REF_FRAME      = TEME
TIME_SYSTEM    = UTC
MEAN_ELEMENT_THEORY = SGP/SGP4

EPOCH          = 2025-10-27T22:15:26.592768
MEAN_MOTION    = 15.08264492
ECCENTRICITY   = .00437508
INCLINATION    = 67.9909
RA_OF_ASC_NODE = 53.4701
ARG_OF_PERICENTER = 197.1048
MEAN_ANOMALY   = 162.8629

EPHEMERIS_TYPE = 0
CLASSIFICATION_TYPE = U
NORAD_CAT_ID   = 26474
ELEMENT_SET_NO = 999
REV_AT_EPOCH   = 37288
BSTAR          = .41717303E-3
MEAN_MOTION_DOT = .6495E-4
MEAN_MOTION_DDOT = 0

CCSDS_OMM_VERS = 2.0
CREATION_DATE  = 
ORIGINATOR     = 

OBJECT_NAME    = ENVISAT
OBJECT_ID      = 2002-009A
CENTER_NAME    = EARTH
REF_FRAME      = TEME
TIME_SYSTEM    = UTC
MEAN_ELEMENT_THEORY = SGP/SGP4

EPOCH          = 2025-10-27T20:48:32.116032
MEAN_MOTION    = 14.38973483
ECCENTRICITY   = .00013337
INCLINATION    = 98.3520
RA_OF_ASC_NODE = 252.7890
ARG_OF_PERICENTER = 85.7226
MEAN_ANOMALY   = 298.1660

EPHEMERIS_TYPE = 0
CLASSIFICATION_TYPE = U
NORAD_CAT_ID   = 27386
ELEMENT_SET_NO = 999
REV_AT_EPOCH   = 24007
BSTAR          = .8710331E-4
MEAN_MOTION_DOT = .226E-5
MEAN_MOTION_DDOT = 0

CCSDS_OMM_VERS = 2.0
CREATION_DATE  = 
ORIGINATOR     = 

OBJECT_NAME    = IDEFIX & ARIANE 42P R/B
OBJECT_ID      = 2002-021B
CENTER_NAME    = EARTH
REF_FRAME      = TEME
TIME_SYSTEM    = UTC
MEAN_ELEMENT_THEORY = SGP/SGP4

EPOCH          = 2025-10-27T20:27:24.266016
MEAN_MOTION    = 14.30899606
ECCENTRICITY   = .001099
INCLINATION    = 98.5712
RA_OF_ASC_NODE = 236.1568
ARG_OF_PERICENTER = 214.6767
MEAN_ANOMALY   = 145.3700

EPHEMERIS_TYPE = 0
CLASSIFICATION_TYPE = U
NORAD_CAT_ID   = 27422
ELEMENT_SET_NO = 999
REV_AT_EPOCH   = 22502
BSTAR          = .19404569E-3
MEAN_MOTION_DOT = .466E-5
MEAN_MOTION_DDOT = 0

CCSDS_OMM_VERS = 2.0
CREATION_DATE  = 
ORIGINATOR     = 

OBJECT_NAME    = AQUA
OBJECT_ID      = 2002-022A
CENTER_NAME    = EARTH
REF_FRAME      = TEME
TIME_SYSTEM    = UTC
MEAN_ELEMENT_THEORY = SGP/SGP4

EPOCH          = 2025-10-27T23:01:13.959840
MEAN_MOTION    = 14.61643046
ECCENTRICITY   = .00014291
INCLINATION    = 98.3965
RA_OF_ASC_NODE = 261.1169
ARG_OF_PERICENTER = 52.3241
MEAN_ANOMALY   = 348.5715

EPHEMERIS_TYPE = 0
CLASSIFICATION_TYPE = U
NORAD_CAT_ID   = 27424
ELEMENT_SET_NO = 999
REV_AT_EPOCH   = 24934
BSTAR          = .34156108E-3
MEAN_MOTION_DOT = .165E-4
MEAN_MOTION_DDOT = 0

CCSDS_OMM_VERS = 2.0
CREATION_DATE  = 
ORIGINATOR     = 

OBJECT_NAME    = CZ-4B R/B
OBJECT_ID      = 2002-024C
CENTER_NAME    = EARTH
REF_FRAME      = TEME
TIME_SYSTEM    = UTC
MEAN_ELEMENT_THEORY = SGP/SGP4

EPOCH          = 2025-10-27T14:48:41.927616
MEAN_MOTION    = 14.14513992
ECCENTRICITY   = .0050804
INCLINATION    = 98.9069
RA_OF_ASC_NODE = 349.5334
ARG_OF_PERICENTER = 41.8316
MEAN_ANOMALY   = 120.5568

EPHEMERIS_TYPE = 0
CLASSIFICATION_TYPE = U
NORAD_CAT_ID   = 27432
ELEMENT_SET_NO = 999
REV_AT_EPOCH   = 21042
BSTAR          = .55976999E-4
MEAN_MOTION_DOT = .64E-6
MEAN_MOTION_DDOT = 0

CCSDS_OMM_VERS = 2.0
CREATION_DATE  = 
ORIGINATOR     = 

OBJECT_NAME    = MIDORI II (ADEOS-II)
OBJECT_ID      = 2002-056A
CENTER_NAME    = EARTH
REF_FRAME      = TEME
TIME_SYSTEM    = UTC
MEAN_ELEMENT_THEORY = SGP/SGP4

EPOCH          = 2025-10-27T20:36:56.010240
MEAN_MOTION    = 14.29157818
ECCENTRICITY   = .00019143
INCLINATION    = 98.7557
RA_OF_ASC_NODE = 253.5934
ARG_OF_PERICENTER = 55.7070
MEAN_ANOMALY   = 304.4293

EPHEMERIS_TYPE = 0
CLASSIFICATION_TYPE = U
NORAD_CAT_ID   = 27597
ELEMENT_SET_NO = 999
REV_AT_EPOCH   = 19132
BSTAR          = .19994158E-3
MEAN_MOTION_DOT = .462E-5
MEAN_MOTION_DDOT = 0

CCSDS_OMM_VERS = 2.0
CREATION_DATE  = 
ORIGINATOR     = 

OBJECT_NAME    = H-2A R/B
OBJECT_ID      = 2002-056E
CENTER_NAME    = EARTH
REF_FRAME      = TEME
TIME_SYSTEM    = UTC
MEAN_ELEMENT_THEORY = SGP/SGP4

EPOCH          = 2025-10-27T21:30:53.211744
MEAN_MOTION    = 14.33627495
ECCENTRICITY   = .00698524
INCLINATION    = 98.2991
RA_OF_ASC_NODE = 261.4967
ARG_OF_PERICENTER = 196.4188
MEAN_ANOMALY   = 222.2628

EPHEMERIS_TYPE = 0
CLASSIFICATION_TYPE = U
NORAD_CAT_ID   = 27601
ELEMENT_SET_NO = 999
REV_AT_EPOCH   = 19508
BSTAR          = .1687684E-3
MEAN_MOTION_DOT = .439E-5
MEAN_MOTION_DDOT = 0

CCSDS_OMM_VERS = 2.0
CREATION_DATE  = 
ORIGINATOR     = 

OBJECT_NAME    = CZ-4B R/B
OBJECT_ID      = 2003-049C
CENTER_NAME    = EARTH
REF_FRAME      = TEME
TIME_SYSTEM    = UTC
MEAN_ELEMENT_THEORY = SGP/SGP4

EPOCH          = 2025-10-27T22:18:08.061408
MEAN_MOTION    = 14.54843736
ECCENTRICITY   = .00471195
INCLINATION    = 98.6755
RA_OF_ASC_NODE = 285.7705
ARG_OF_PERICENTER = 277.1735
MEAN_ANOMALY   = 82.4105

EPHEMERIS_TYPE = 0
CLASSIFICATION_TYPE = U
NORAD_CAT_ID   = 28059
ELEMENT_SET_NO = 999
REV_AT_EPOCH   = 16729
BSTAR          = .17335613E-3
MEAN_MOTION_DOT = .703E-5
MEAN_MOTION_DDOT = 0

CCSDS_OMM_VERS = 2.0
CREATION_DATE  = 
ORIGINATOR     = 

OBJECT_NAME    = CZ-2C R/B
OBJECT_ID      = 2004-012C
CENTER_NAME    = EARTH
REF_FRAME      = TEME
TIME_SYSTEM    = UTC
MEAN_ELEMENT_THEORY = SGP/SGP4

EPOCH          = 2025-10-27T22:34:39.080640
MEAN_MOTION    = 15.51515858
ECCENTRICITY   = .00209634
INCLINATION    = 97.7498
RA_OF_ASC_NODE = 349.9082
ARG_OF_PERICENTER = 79.4298
MEAN_ANOMALY   = 280.9313

EPHEMERIS_TYPE = 0
CLASSIFICATION_TYPE = U
NORAD_CAT_ID   = 28222
ELEMENT_SET_NO = 999
REV_AT_EPOCH   = 18361
BSTAR          = .61728905E-3
MEAN_MOTION_DOT = .36845E-3
MEAN_MOTION_DDOT = 0

CCSDS_OMM_VERS = 2.0
CREATION_DATE  = 
ORIGINATOR     = 

OBJECT_NAME    = SL-16 R/B
OBJECT_ID      = 2004-021B
CENTER_NAME    = EARTH
REF_FRAME      = TEME
TIME_SYSTEM    = UTC
MEAN_ELEMENT_THEORY = SGP/SGP4

EPOCH          = 2025-10-27T22:34:20.559072
MEAN_MOTION    = 14.14571839
ECCENTRICITY   = .00073213
INCLINATION    = 70.9988
RA_OF_ASC_NODE = 151.0761
ARG_OF_PERICENTER = 250.6661
MEAN_ANOMALY   = 109.3671

EPHEMERIS_TYPE = 0
CLASSIFICATION_TYPE = U
NORAD_CAT_ID   = 28353
ELEMENT_SET_NO = 999
REV_AT_EPOCH   = 10406
BSTAR          = -.11460901E-3
MEAN_MOTION_DOT = -.268E-5
MEAN_MOTION_DDOT = 0

CCSDS_OMM_VERS = 2.0
CREATION_DATE  = 
ORIGINATOR     = 

OBJECT_NAME    = CZ-4B R/B
OBJECT_ID      = 2004-035C
CENTER_NAME    = EARTH
REF_FRAME      = TEME
TIME_SYSTEM    = UTC
MEAN_ELEMENT_THEORY = SGP/SGP4

EPOCH          = 2025-10-27T00:43:12.386208
MEAN_MOTION    = 15.26300959
ECCENTRICITY   = .00359724
INCLINATION    = 97.3671
RA_OF_ASC_NODE = 331.0169
ARG_OF_PERICENTER = 82.7487
MEAN_ANOMALY   = 277.7838

EPHEMERIS_TYPE = 0
CLASSIFICATION_TYPE = U
NORAD_CAT_ID   = 28415
ELEMENT_SET_NO = 999
REV_AT_EPOCH   = 15950
BSTAR          = .37374511E-3
MEAN_MOTION_DOT = .981E-4
MEAN_MOTION_DDOT = 0

CCSDS_OMM_VERS = 2.0
CREATION_DATE  = 
ORIGINATOR     = 

OBJECT_NAME    = CZ-2C R/B
OBJECT_ID      = 2004-046B
CENTER_NAME    = EARTH
REF_FRAME      = TEME
TIME_SYSTEM    = UTC
MEAN_ELEMENT_THEORY = SGP/SGP4

EPOCH          = 2025-10-27T17:58:21.853056
MEAN_MOTION    = 14.26910642
ECCENTRICITY   = .01393022
INCLINATION    = 98.1942
RA_OF_ASC_NODE = 218.9961
ARG_OF_PERICENTER = 187.5170
MEAN_ANOMALY   = 172.3925

EPHEMERIS_TYPE = 0
CLASSIFICATION_TYPE = U
NORAD_CAT_ID   = 28480
ELEMENT_SET_NO = 999
REV_AT_EPOCH   = 8954
BSTAR          = .98545845E-4
MEAN_MOTION_DOT = .224E-5
MEAN_MOTION_DDOT = 0

