TITAN 4B R/B            
1 26474U 00047B   25300.92739112  .00006495  00000+0  41717-3 0  9994
2 26474  67.9909  53.4701 0043750 197.1048 162.8629 15.08264492372887
ENVISAT                 
1 27386U 02009A   25300.86703838  .00000226  00000+0  87103-4 0  9992
2 27386  98.3520 252.7890 0001333  85.7226 298.1660 14.38973483240073
IDEFIX & ARIANE 42P R/B 
1 27422U 02021B   25300.85236419  .00000466  00000+0  19405-3 0  9997
2 27422  98.5712 236.1568 0010990 214.6767 145.3700 14.30899606225021
AQUA                    
1 27424U 02022A   25300.95918935  .00001650  00000+0  34156-3 0  9997
2 27424  98.3965 261.1169 0001429  52.3241 348.5715 14.61643046249340
CZ-4B R/B               
1 27432U 02024C   25300.61715194  .00000064  00000+0  55977-4 0  9996
2 27432  98.9069 349.5334 0050804  41.8316 120.5568 14.14513992210427
MIDORI II (ADEOS-II)    
1 27597U 02056A   25300.85898160  .00000462  00000+0  19994-3 0  9994
2 27597  98.7557 253.5934 0001914  55.7070 304.4293 14.29157818191320
H-2A R/B                
1 27601U 02056E   25300.89644921  .00000439  00000+0  16877-3 0  9999
2 27601  98.2991 261.4967 0069852 196.4188 222.2628 14.33627495195089
CZ-4B R/B               
1 28059U 03049C   25300.92925997  .00000703  00000+0  17336-3 0  9994
2 28059  98.6755 285.7705 0047119 277.1735  82.4105 14.54843736167294
CZ-2C R/B               
1 28222U 04012C   25300.94073010  .00036845  00000+0  61729-3 0  9990
2 28222  97.7498 349.9082 0020963  79.4298 280.9313 15.51515858183615
SL-16 R/B               
1 28353U 04021B   25300.94051573 -.00000268  00000+0 -11461-3 0  9995
2 28353  70.9988 151.0761 0007321 250.6661 109.3671 14.14571839104065
CZ-4B R/B               
1 28415U 04035C   25300.03000447  .00009810  00000+0  37375-3 0  9995
2 28415  97.3671 331.0169 0035972  82.7487 277.7838 15.26300959159502
CZ-2C R/B               
1 28480U 04046B   25300.74886404  .00000224  00000+0  98546-4 0  9990
2 28480  98.1942 218.9961 0139302 187.5170 172.3925 14.26910642 89540
